{"type": "FeatureCollection", "features": [ {"type": "Feature", "properties": {"norad_id": 40115, "name": "WORLDVIEW-3 (WV-3)", "group": "resource", "lat": 19.4360198431643, "lon": -121.18086949097021, "alt_km": 609.6247423649584, "timestamp": "2025-12-09T16:56:36.237227+00:00", "meta": {"OBJECT_NAME": "WORLDVIEW-3 (WV-3)", "OBJECT_ID": "2014-048A", "EPOCH": "2025-12-09T11:22:27.338592", "MEAN_MOTION": 14.85499944, "ECCENTRICITY": 0.0004502, "INCLINATION": 97.8619, "RA_OF_ASC_NODE": 55.7953, "ARG_OF_PERICENTER": 195.9311, "MEAN_ANOMALY": 164.1763, "EPHEMERIS_TYPE": 0, "CLASSIFICATION_TYPE": "U", "NORAD_CAT_ID": 40115, "ELEMENT_SET_NO": 999, "REV_AT_EPOCH": 61375, "BSTAR": 0.00025221, "MEAN_MOTION_DOT": 2.124e-05, "MEAN_MOTION_DDOT": 0}, "tle": {"line1": "1 40115U 14048A   25343.47392753  .00002124  00000+0  25221-3 0  9998", "line2": "2 40115  97.8619  55.7953 0004502 195.9311 164.1763 14.85499944613754"}}, "geometry": {"type": "Point", "coordinates": [-121.18086949097021, 19.4360198431643]}}, {"type": "Feature", "properties": {"norad_id": 40118, "name": "GAOFEN-2", "group": "resource", "lat": 30.56918305776416, "lon": 38.080841557937134, "alt_km": 625.8275862117553, "timestamp": "2025-12-09T16:56:36.237243+00:00", "meta": {"OBJECT_NAME": "GAOFEN-2", "OBJECT_ID": "2014-049A", "EPOCH": "2025-12-09T11:56:18.042720", "MEAN_MOTION": 14.80599679, "ECCENTRICITY": 0.0008419, "INCLINATION": 98.0384, "RA_OF_ASC_NODE": 42.6602, "ARG_OF_PERICENTER": 121.6825, "MEAN_ANOMALY": 238.5208, "EPHEMERIS_TYPE": 0, "CLASSIFICATION_TYPE": "U", "NORAD_CAT_ID": 40118, "ELEMENT_SET_NO": 999, "REV_AT_EPOCH": 61116, "BSTAR": 0.00015378, "MEAN_MOTION_DOT": 1.127e-05, "MEAN_MOTION_DDOT": 0}, "tle": {"line1": "1 40118U 14049A   25343.49743105  .00001127  00000+0  15378-3 0  9999", "line2": "2 40118  98.0384  42.6602 0008419 121.6825 238.5208 14.80599679611166"}}, "geometry": {"type": "Point", "coordinates": [38.080841557937134, 30.56918305776416]}}, {"type": "Feature", "properties": {"norad_id": 40143, "name": "YAOGAN-21", "group": "resource", "lat": -64.41404235371226, "lon": -168.1037727848323, "alt_km": 508.77498421461223, "timestamp": "2025-12-09T16:56:36.237254+00:00", "meta": {"OBJECT_NAME": "YAOGAN-21", "OBJECT_ID": "2014-053A", "EPOCH": "2025-12-09T12:43:03.685728", "MEAN_MOTION": 15.23623638, "ECCENTRICITY": 0.0009963, "INCLINATION": 97.1753, "RA_OF_ASC_NODE": 26.9822, "ARG_OF_PERICENTER": 50.9859, "MEAN_ANOMALY": 309.2264, "EPHEMERIS_TYPE": 0, "CLASSIFICATION_TYPE": "U", "NORAD_CAT_ID": 40143, "ELEMENT_SET_NO": 999, "REV_AT_EPOCH": 62605, "BSTAR": 0.00051593, "MEAN_MOTION_DOT": 0.00012316, "MEAN_MOTION_DDOT": 0}, "tle": {"line1": "1 40143U 14053A   25343.52990377  .00012316  00000+0  51593-3 0  9992", "line2": "2 40143  97.1753  26.9822 0009963  50.9859 309.2264 15.23623638626052"}}, "geometry": {"type": "Point", "coordinates": [-168.1037727848323, -64.41404235371226]}}, {"type": "Feature", "properties": {"norad_id": 40275, "name": "YAOGAN-22", "group": "resource", "lat": -9.39797033856318, "lon": -54.71785485922616, "alt_km": 1203.8994625040523, "timestamp": "2025-12-09T16:56:36.237265+00:00", "meta": {"OBJECT_NAME": "YAOGAN-22", "OBJECT_ID": "2014-063A", "EPOCH": "2025-12-09T10:30:25.341984", "MEAN_MOTION": 13.15522531, "ECCENTRICITY": 0.0005934, "INCLINATION": 100.7419, "RA_OF_ASC_NODE": 126.8107, "ARG_OF_PERICENTER": 256.277, "MEAN_ANOMALY": 103.7681, "EPHEMERIS_TYPE": 0, "CLASSIFICATION_TYPE": "U", "NORAD_CAT_ID": 40275, "ELEMENT_SET_NO": 999, "REV_AT_EPOCH": 53486, "BSTAR": 0.00013142, "MEAN_MOTION_DOT": 3e-08, "MEAN_MOTION_DDOT": 0}, "tle": {"line1": "1 40275U 14063A   25343.43779331  .00000003  00000+0  13142-3 0  9992", "line2": "2 40275 100.7419 126.8107 0005934 256.2770 103.7681 13.15522531534867"}}, "geometry": {"type": "Point", "coordinates": [-54.71785485922616, -9.39797033856318]}}, {"type": "Feature", "properties": {"norad_id": 40298, "name": "ASNARO", "group": "resource", "lat": -20.972693137921375, "lon": 62.568717984155924, "alt_km": 516.2380227484919, "timestamp": "2025-12-09T16:56:36.237275+00:00", "meta": {"OBJECT_NAME": "ASNARO", "OBJECT_ID": "2014-070A", "EPOCH": "2025-12-09T12:17:40.562592", "MEAN_MOTION": 15.1938725, "ECCENTRICITY": 0.000536, "INCLINATION": 97.3647, "RA_OF_ASC_NODE": 59.538, "ARG_OF_PERICENTER": 129.8839, "MEAN_ANOMALY": 230.2868, "EPHEMERIS_TYPE": 0, "CLASSIFICATION_TYPE": "U", "NORAD_CAT_ID": 40298, "ELEMENT_SET_NO": 999, "REV_AT_EPOCH": 61520, "BSTAR": 0.00072575, "MEAN_MOTION_DOT": 0.00015315, "MEAN_MOTION_DDOT": 0}, "tle": {"line1": "1 40298U 14070A   25343.51227503  .00015315  00000+0  72575-3 0  9990", "line2": "2 40298  97.3647  59.5380 0005360 129.8839 230.2868 15.19387250615209"}}, "geometry": {"type": "Point", "coordinates": [62.568717984155924, -20.972693137921375]}}, {"type": "Feature", "properties": {"norad_id": 40310, "name": "YAOGAN-24", "group": "resource", "lat": 61.81358088940403, "lon": 99.32667541244724, "alt_km": 634.3757028059272, "timestamp": "2025-12-09T16:56:36.237286+00:00", "meta": {"OBJECT_NAME": "YAOGAN-24", "OBJECT_ID": "2014-072A", "EPOCH": "2025-12-09T11:46:42.991104", "MEAN_MOTION": 14.76167112, "ECCENTRICITY": 0.0014601, "INCLINATION": 98.1225, "RA_OF_ASC_NODE": 114.5668, "ARG_OF_PERICENTER": 147.8453, "MEAN_ANOMALY": 212.365, "EPHEMERIS_TYPE": 0, "CLASSIFICATION_TYPE": "U", "NORAD_CAT_ID": 40310, "ELEMENT_SET_NO": 999, "REV_AT_EPOCH": 59573, "BSTAR": 0.00024609, "MEAN_MOTION_DOT": 1.651e-05, "MEAN_MOTION_DDOT": 0}, "tle": {"line1": "1 40310U 14072A   25343.49077536  .00001651  00000+0  24609-3 0  9996", "line2": "2 40310  98.1225 114.5668 0014601 147.8453 212.3650 14.76167112595736"}}, "geometry": {"type": "Point", "coordinates": [99.32667541244724, 61.81358088940403]}}, {"type": "Feature", "properties": {"norad_id": 40336, "name": "CBERS 4", "group": "resource", "lat": -65.67784954205578, "lon": -157.08987885743852, "alt_km": 781.3257401589262, "timestamp": "2025-12-09T16:56:36.237296+00:00", "meta": {"OBJECT_NAME": "CBERS 4", "OBJECT_ID": "2014-079A", "EPOCH": "2025-12-09T12:27:02.052864", "MEAN_MOTION": 14.35516241, "ECCENTRICITY": 0.0001566, "INCLINATION": 98.3308, "RA_OF_ASC_NODE": 41.6458, "ARG_OF_PERICENTER": 114.8614, "MEAN_ANOMALY": 245.2735, "EPHEMERIS_TYPE": 0, "CLASSIFICATION_TYPE": "U", "NORAD_CAT_ID": 40336, "ELEMENT_SET_NO": 999, "REV_AT_EPOCH": 57674, "BSTAR": 0.00013635, "MEAN_MOTION_DOT": 3.5e-06, "MEAN_MOTION_DDOT": 0}, "tle": {"line1": "1 40336U 14079A   25343.51877376  .00000350  00000+0  13635-3 0  9996", "line2": "2 40336  98.3308  41.6458 0001566 114.8614 245.2735 14.35516241576749"}}, "geometry": {"type": "Point", "coordinates": [-157.08987885743852, -65.67784954205578]}}, {"type": "Feature", "properties": {"norad_id": 40362, "name": "YAOGAN-26", "group": "resource", "lat": 29.180240102989032, "lon": 168.45900791541288, "alt_km": 449.23555021034554, "timestamp": "2025-12-09T16:56:36.237307+00:00", "meta": {"OBJECT_NAME": "YAOGAN-26", "OBJECT_ID": "2014-088A", "EPOCH": "2025-12-09T13:10:17.518368", "MEAN_MOTION": 15.39110941, "ECCENTRICITY": 0.0006714, "INCLINATION": 97.0644, "RA_OF_ASC_NODE": 344.3364, "ARG_OF_PERICENTER": 37.9407, "MEAN_ANOMALY": 322.2312, "EPHEMERIS_TYPE": 0, "CLASSIFICATION_TYPE": "U", "NORAD_CAT_ID": 40362, "ELEMENT_SET_NO": 999, "REV_AT_EPOCH": 60845, "BSTAR": 0.0003136, "MEAN_MOTION_DOT": 0.00012088, "MEAN_MOTION_DDOT": 0}, "tle": {"line1": "1 40362U 14088A   25343.54881387  .00012088  00000+0  31360-3 0  9991", "line2": "2 40362  97.0644 344.3364 0006714  37.9407 322.2312 15.39110941608454"}}, "geometry": {"type": "Point", "coordinates": [168.45900791541288, 29.180240102989032]}}, {"type": "Feature", "properties": {"norad_id": 40376, "name": "SMAP", "group": "resource", "lat": 33.128278441813784, "lon": 173.82577485141098, "alt_km": 679.9371495807454, "timestamp": "2025-12-09T16:56:36.237318+00:00", "meta": {"OBJECT_NAME": "SMAP", "OBJECT_ID": "2015-003A", "EPOCH": "2025-12-09T11:21:12.695040", "MEAN_MOTION": 14.63339108, "ECCENTRICITY": 0.0001207, "INCLINATION": 98.1291, "RA_OF_ASC_NODE": 348.244, "ARG_OF_PERICENTER": 88.7863, "MEAN_ANOMALY": 271.3477, "EPHEMERIS_TYPE": 0, "CLASSIFICATION_TYPE": "U", "NORAD_CAT_ID": 40376, "ELEMENT_SET_NO": 999, "REV_AT_EPOCH": 57987, "BSTAR": 0.00021219, "MEAN_MOTION_DOT": 1.049e-05, "MEAN_MOTION_DDOT": 0}, "tle": {"line1": "1 40376U 15003A   25343.47306360  .00001049  00000+0  21219-3 0  9996", "line2": "2 40376  98.1291 348.2440 0001207  88.7863 271.3477 14.63339108579872"}}, "geometry": {"type": "Point", "coordinates": [173.82577485141098, 33.128278441813784]}}, {"type": "Feature", "properties": {"norad_id": 40536, "name": "KOMPSAT-3A", "group": "resource", "lat": 39.55529463688657, "lon": -48.51373036970405, "alt_km": 432.1858522461989, "timestamp": "2025-12-09T16:56:36.237328+00:00", "meta": {"OBJECT_NAME": "KOMPSAT-3A", "OBJECT_ID": "2015-014A", "EPOCH": "2025-12-09T12:06:13.542624", "MEAN_MOTION": 15.43760815, "ECCENTRICITY": 0.0004578, "INCLINATION": 97.6792, "RA_OF_ASC_NODE": 317.6723, "ARG_OF_PERICENTER": 133.6081, "MEAN_ANOMALY": 226.5546, "EPHEMERIS_TYPE": 0, "CLASSIFICATION_TYPE": "U", "NORAD_CAT_ID": 40536, "ELEMENT_SET_NO": 999, "REV_AT_EPOCH": 59245, "BSTAR": 0.00057447, "MEAN_MOTION_DOT": 0.00025942, "MEAN_MOTION_DDOT": 0}, "tle": {"line1": "1 40536U 15014A   25343.50432341  .00025942  00000+0  57447-3 0  9999", "line2": "2 40536  97.6792 317.6723 0004578 133.6081 226.5546 15.43760815592450"}}, "geometry": {"type": "Point", "coordinates": [-48.51373036970405, 39.55529463688657]}}]}